CCSDS_OMM_VERS = 2.0
CREATION_DATE  = 
ORIGINATOR     = 

OBJECT_NAME    = ATLAS CENTAUR R/B
OBJECT_ID      = 1972-065B
CENTER_NAME    = EARTH
REF_FRAME      = TEME
TIME_SYSTEM    = UTC
MEAN_ELEMENT_THEORY = SGP/SGP4

EPOCH          = 2026-01-08T11:42:31.940352
MEAN_MOTION    = 14.77495394
ECCENTRICITY   = .0034408
INCLINATION    = 35.0024
RA_OF_ASC_NODE = 298.5070
ARG_OF_PERICENTER = 224.6571
MEAN_ANOMALY   = 135.1356

EPHEMERIS_TYPE = 0
CLASSIFICATION_TYPE = U
NORAD_CAT_ID   = 6155
ELEMENT_SET_NO = 999
REV_AT_EPOCH   = 83235
BSTAR          = .20167955E-3
MEAN_MOTION_DOT = .1453E-4
MEAN_MOTION_DDOT = 0

CCSDS_OMM_VERS = 2.0
CREATION_DATE  = 
ORIGINATOR     = 

OBJECT_NAME    = SL-8 R/B
OBJECT_ID      = 1975-112B
CENTER_NAME    = EARTH
REF_FRAME      = TEME
TIME_SYSTEM    = UTC
MEAN_ELEMENT_THEORY = SGP/SGP4

EPOCH          = 2026-01-08T14:40:58.139328
MEAN_MOTION    = 14.38166978
ECCENTRICITY   = .00165725
INCLINATION    = 74.0611
RA_OF_ASC_NODE = 129.4309
ARG_OF_PERICENTER = 238.0839
MEAN_ANOMALY   = 121.8703

EPHEMERIS_TYPE = 0
CLASSIFICATION_TYPE = U
NORAD_CAT_ID   = 8459
ELEMENT_SET_NO = 999
REV_AT_EPOCH   = 62323
BSTAR          = .1275544E-3
MEAN_MOTION_DOT = .361E-5
MEAN_MOTION_DDOT = 0

CCSDS_OMM_VERS = 2.0
CREATION_DATE  = 
ORIGINATOR     = 

OBJECT_NAME    = SL-3 R/B
OBJECT_ID      = 1977-057B
CENTER_NAME    = EARTH
REF_FRAME      = TEME
TIME_SYSTEM    = UTC
MEAN_ELEMENT_THEORY = SGP/SGP4

EPOCH          = 2026-01-08T23:42:47.930400
MEAN_MOTION    = 15.43719737
ECCENTRICITY   = .0008224
INCLINATION    = 97.5701
RA_OF_ASC_NODE = 178.3943
ARG_OF_PERICENTER = 132.2440
MEAN_ANOMALY   = 227.9507

EPHEMERIS_TYPE = 0
CLASSIFICATION_TYPE = U
NORAD_CAT_ID   = 10114
ELEMENT_SET_NO = 999
REV_AT_EPOCH   = 65911
BSTAR          = .2495E-3
MEAN_MOTION_DOT = .11188E-3
MEAN_MOTION_DDOT = 0

CCSDS_OMM_VERS = 2.0
CREATION_DATE  = 
ORIGINATOR     = 

OBJECT_NAME    = SEASAT 1
OBJECT_ID      = 1978-064A
CENTER_NAME    = EARTH
REF_FRAME      = TEME
TIME_SYSTEM    = UTC
MEAN_ELEMENT_THEORY = SGP/SGP4

EPOCH          = 2026-01-08T14:12:12.207744
MEAN_MOTION    = 14.46097603
ECCENTRICITY   = .00011691
INCLINATION    = 108.0152
RA_OF_ASC_NODE = 359.3751
ARG_OF_PERICENTER = 269.5312
MEAN_ANOMALY   = 90.5699

EPHEMERIS_TYPE = 0
CLASSIFICATION_TYPE = U
NORAD_CAT_ID   = 10967
ELEMENT_SET_NO = 999
REV_AT_EPOCH   = 49782
BSTAR          = .17367963E-3
MEAN_MOTION_DOT = .483E-5
MEAN_MOTION_DDOT = 0

CCSDS_OMM_VERS = 2.0
CREATION_DATE  = 
ORIGINATOR     = 

OBJECT_NAME    = SL-14 R/B
OBJECT_ID      = 1979-011B
CENTER_NAME    = EARTH
REF_FRAME      = TEME
TIME_SYSTEM    = UTC
MEAN_ELEMENT_THEORY = SGP/SGP4

EPOCH          = 2026-01-08T11:36:56.771424
MEAN_MOTION    = 14.91814365
ECCENTRICITY   = .0014658
INCLINATION    = 82.5251
RA_OF_ASC_NODE = 153.6799
ARG_OF_PERICENTER = 257.6872
MEAN_ANOMALY   = 102.2706

EPHEMERIS_TYPE = 0
CLASSIFICATION_TYPE = U
NORAD_CAT_ID   = 11267
ELEMENT_SET_NO = 999
REV_AT_EPOCH   = 51980
BSTAR          = .83868792E-4
MEAN_MOTION_DOT = .872E-5
MEAN_MOTION_DDOT = 0

CCSDS_OMM_VERS = 2.0
CREATION_DATE  = 
ORIGINATOR     = 

OBJECT_NAME    = SL-8 R/B
OBJECT_ID      = 1979-089B
CENTER_NAME    = EARTH
REF_FRAME      = TEME
TIME_SYSTEM    = UTC
MEAN_ELEMENT_THEORY = SGP/SGP4

EPOCH          = 2026-01-08T22:57:54.115776
MEAN_MOTION    = 14.42302472
ECCENTRICITY   = .0015223
INCLINATION    = 74.0670
RA_OF_ASC_NODE = 201.6049
ARG_OF_PERICENTER = 25.4395
MEAN_ANOMALY   = 334.7507

EPHEMERIS_TYPE = 0
CLASSIFICATION_TYPE = U
NORAD_CAT_ID   = 11574
ELEMENT_SET_NO = 999
REV_AT_EPOCH   = 42749
BSTAR          = .89662E-4
MEAN_MOTION_DOT = .27E-5
MEAN_MOTION_DDOT = 0

CCSDS_OMM_VERS = 2.0
CREATION_DATE  = 
ORIGINATOR     = 

OBJECT_NAME    = SL-14 R/B
OBJECT_ID      = 1980-005B
CENTER_NAME    = EARTH
REF_FRAME      = TEME
TIME_SYSTEM    = UTC
MEAN_ELEMENT_THEORY = SGP/SGP4

EPOCH          = 2026-01-08T23:52:01.674048
MEAN_MOTION    = 14.90833059
ECCENTRICITY   = .0015962
INCLINATION    = 82.5142
RA_OF_ASC_NODE = 3.8466
ARG_OF_PERICENTER = 8.6123
MEAN_ANOMALY   = 351.5367

EPHEMERIS_TYPE = 0
CLASSIFICATION_TYPE = U
NORAD_CAT_ID   = 11672
ELEMENT_SET_NO = 999
REV_AT_EPOCH   = 46759
BSTAR          = .64024E-4
MEAN_MOTION_DOT = .657E-5
MEAN_MOTION_DDOT = 0

CCSDS_OMM_VERS = 2.0
CREATION_DATE  = 
ORIGINATOR     = 

OBJECT_NAME    = SL-8 R/B
OBJECT_ID      = 1981-003B
CENTER_NAME    = EARTH
REF_FRAME      = TEME
TIME_SYSTEM    = UTC
MEAN_ELEMENT_THEORY = SGP/SGP4

EPOCH          = 2026-01-08T10:06:04.304160
MEAN_MOTION    = 15.08173228
ECCENTRICITY   = .02738878
INCLINATION    = 82.9383
RA_OF_ASC_NODE = 345.6486
ARG_OF_PERICENTER = 28.7708
MEAN_ANOMALY   = 332.8314

EPHEMERIS_TYPE = 0
CLASSIFICATION_TYPE = U
NORAD_CAT_ID   = 12139
ELEMENT_SET_NO = 999
REV_AT_EPOCH   = 30558
BSTAR          = .73737627E-3
MEAN_MOTION_DOT = .27945E-3
MEAN_MOTION_DDOT = 0

CCSDS_OMM_VERS = 2.0
CREATION_DATE  = 
ORIGINATOR     = 

OBJECT_NAME    = SL-3 R/B
OBJECT_ID      = 1981-046B
CENTER_NAME    = EARTH
REF_FRAME      = TEME
TIME_SYSTEM    = UTC
MEAN_ELEMENT_THEORY = SGP/SGP4

EPOCH          = 2026-01-08T14:17:59.856288
MEAN_MOTION    = 15.40287631
ECCENTRICITY   = .00181791
INCLINATION    = 81.2329
RA_OF_ASC_NODE = 1.7920
ARG_OF_PERICENTER = 224.3751
MEAN_ANOMALY   = 135.6035

EPHEMERIS_TYPE = 0
CLASSIFICATION_TYPE = U
NORAD_CAT_ID   = 12465
ELEMENT_SET_NO = 999
REV_AT_EPOCH   = 42917
BSTAR          = .3275324E-3
MEAN_MOTION_DOT = .13301E-3
MEAN_MOTION_DDOT = 0

CCSDS_OMM_VERS = 2.0
CREATION_DATE  = 
ORIGINATOR     = 

OBJECT_NAME    = SL-3 R/B
OBJECT_ID      = 1981-103B
CENTER_NAME    = EARTH
REF_FRAME      = TEME
TIME_SYSTEM    = UTC
MEAN_ELEMENT_THEORY = SGP/SGP4

EPOCH          = 2026-01-08T23:19:49.821024
MEAN_MOTION    = 15.20621432
ECCENTRICITY   = .0014108
INCLINATION    = 81.1593
RA_OF_ASC_NODE = 283.4549
ARG_OF_PERICENTER = 121.9167
MEAN_ANOMALY   = 238.3439

EPHEMERIS_TYPE = 0
CLASSIFICATION_TYPE = U
NORAD_CAT_ID   = 12904
ELEMENT_SET_NO = 999
REV_AT_EPOCH   = 96415
BSTAR          = .29417E-3
MEAN_MOTION_DOT = .6492E-4
MEAN_MOTION_DDOT = 0

CCSDS_OMM_VERS = 2.0
CREATION_DATE  = 
ORIGINATOR     = 

OBJECT_NAME    = SL-3 R/B
OBJECT_ID      = 1982-013B
CENTER_NAME    = EARTH
REF_FRAME      = TEME
TIME_SYSTEM    = UTC
MEAN_ELEMENT_THEORY = SGP/SGP4

EPOCH          = 2026-01-08T22:35:02.781888
MEAN_MOTION    = 15.21362932
ECCENTRICITY   = .0023299
INCLINATION    = 81.1729
RA_OF_ASC_NODE = 230.7648
ARG_OF_PERICENTER = 23.3356
MEAN_ANOMALY   = 336.8927

EPHEMERIS_TYPE = 0
CLASSIFICATION_TYPE = U
NORAD_CAT_ID   = 13068
ELEMENT_SET_NO = 999
REV_AT_EPOCH   = 39526
BSTAR          = .16919E-3
MEAN_MOTION_DOT = .3844E-4
MEAN_MOTION_DDOT = 0

CCSDS_OMM_VERS = 2.0
CREATION_DATE  = 
ORIGINATOR     = 

OBJECT_NAME    = SL-3 R/B
OBJECT_ID      = 1982-039B
CENTER_NAME    = EARTH
REF_FRAME      = TEME
TIME_SYSTEM    = UTC
MEAN_ELEMENT_THEORY = SGP/SGP4

EPOCH          = 2026-01-08T14:47:34.417248
MEAN_MOTION    = 15.09718510
ECCENTRICITY   = .00297227
INCLINATION    = 81.1688
RA_OF_ASC_NODE = 285.1716
ARG_OF_PERICENTER = 161.3702
MEAN_ANOMALY   = 198.8619

EPHEMERIS_TYPE = 0
CLASSIFICATION_TYPE = U
NORAD_CAT_ID   = 13154
ELEMENT_SET_NO = 999
REV_AT_EPOCH   = 37257
BSTAR          = .20459833E-3
MEAN_MOTION_DOT = .3355E-4
MEAN_MOTION_DDOT = 0

