ATLAS CENTAUR R/B       
1 06155U 72065B   26008.48786968  .00001453  00000+0  20168-3 0  9991
2 06155  35.0024 298.5070 0034408 224.6571 135.1356 14.77495394832358
SL-8 R/B                
1 08459U 75112B   26008.61178402  .00000361  00000+0  12755-3 0  9999
2 08459  74.0611 129.4309 0016572 238.0839 121.8703 14.38166978623230
SL-3 R/B                
1 10114U 77057B   26008.98805475  .00011188  00000+0  24950-3 0  9996
2 10114  97.5701 178.3943 0008224 132.2440 227.9507 15.43719737659116
SEASAT 1                
1 10967U 78064A   26008.59180796  .00000483  00000+0  17368-3 0  9991
2 10967 108.0152 359.3751 0001169 269.5312  90.5699 14.46097603497828
SL-14 R/B               
1 11267U 79011B   26008.48399041  .00000872  00000+0  83869-4 0  9993
2 11267  82.5251 153.6799 0014658 257.6872 102.2706 14.91814365519806
SL-8 R/B                
1 11574U 79089B   26008.95687634  .00000270  00000+0  89662-4 0  9998
2 11574  74.0670 201.6049 0015223  25.4395 334.7507 14.42302472427491
SL-14 R/B               
1 11672U 80005B   26008.99446382  .00000657  00000+0  64024-4 0  9998
2 11672  82.5142   3.8466 0015962   8.6123 351.5367 14.90833059467594
SL-8 R/B                
1 12139U 81003B   26008.42088315  .00027945  00000+0  73738-3 0  9992
2 12139  82.9383 345.6486 0273887  28.7708 332.8314 15.08173228305586
SL-3 R/B                
1 12465U 81046B   26008.59583167  .00013301  00000+0  32753-3 0  9997
2 12465  81.2329   1.7920 0018179 224.3751 135.6035 15.40287631429177
SL-3 R/B                
1 12904U 81103B   26008.97210441  .00006492  00000+0  29417-3 0  9999
2 12904  81.1593 283.4549 0014108 121.9167 238.3439 15.20621432964154
SL-3 R/B                
1 13068U 82013B   26008.94100442  .00003844  00000+0  16919-3 0  9999
2 13068  81.1729 230.7648 0023299  23.3356 336.8927 15.21362932395262
SL-3 R/B                
1 13154U 82039B   26008.61637057  .00003355  00000+0  20460-3 0  9997
2 13154  81.1688 285.1716 0029722 161.3702 198.8619 15.09718510372573
